(Header)
M5
G21 (All units in mm)

(---------------------------)
(Go to start)

G00 Z1.000000
G00 X91 Y82

(---------------------------)
(Start cutting path Square)

G01 Z-1.000000 F100.0(Penetrate)
G01 X129 Y135 Z-1.000000 F100.000000
G01 X163 Y106 Z-1.000000
G01 X169 Y126 Z-1.000000
G00 Z1.000000

(End cutting path Line SawTooth)

(---------------------------)
(Go to start)
G00 Z1.000000
G00 X15.907186 Y140.380927

(---------------------------)
(Start cutting path Rectangle)

G01 Z-1.000000 F100.0(Penetrate)
G01 X77.149856 Y140.380927 Z-1.000000 F100.000000
G01 X77.149856 Y97.033839 Z-1.000000
G01 X15.907186 Y97.033839 Z-1.000000
G01 X15.907186 Y140.380927 Z-1.000000

G00 Z1.000000

(End cutting path Line)


(---------------------------)
(Go to init point)
M5
G00 X0.0000 Y0.0000

(---------------------------)
(Footer)
M2
